SL-16 R/B               
1 25400U 98043G   26044.80584362  .00000062  00000+0  44848-4 0  9996
2 25400  98.8212 358.0060 0010985  84.1732 276.0700 14.26043965435580
SL-16 R/B               
1 25407U 98045B   26044.91109503  .00000300  00000+0  17558-3 0  9999
2 25407  71.0086 231.5788 0005608  51.5989 308.5638 14.16187197423739
ISS (ZARYA)             
1 25544U 98067A   26044.69819201  .00007793  00000+0  15142-3 0  9993
2 25544  51.6306 190.9508 0011049  94.7958 265.4292 15.48584309552618
CZ-4B R/B               
1 25732U 99025C   26044.75956869  .00000063  00000+0  51193-4 0  9996
2 25732  98.6675  89.6024 0037971  54.8723  57.6800 14.18260436384777
OKEAN-O                 
1 25860U 99039A   26044.72358088  .00000693  00000+0  97827-4 0  9992
2 25860  97.9496 104.8523 0001870  83.2883 276.8542 14.80295472430843
SL-16 R/B               
1 25861U 99039B   26044.72608793  .00000609  00000+0  84146-4 0  9991
2 25861  98.0019 103.8518 0014239 340.4403  19.6262 14.81697150433316
DELTA 2 R/B             
1 25876U 99041E   26044.93830813  .00002130  00000+0  38002-3 0  9993
2 25876  51.7655  36.1305 0502264 278.2743  76.1553 14.11745284359673
HELIOS 1B               
1 25977U 99064A   26044.70156402  .00001785  00000+0  20292-3 0  9997
2 25977  98.1724 306.2371 0002217 108.3495 251.7962 14.87596360681698
TERRA                   
1 25994U 99068A   26044.82587299  .00000469  00000+0  10475-3 0  9995
2 25994  97.9645  99.1660 0001052 234.6600 252.9628 14.60988321391594
SL-16 R/B               
1 26070U 00006B   26044.70834291 -.00000231  00000+0 -93165-4 0  9996
2 26070  71.0029 148.2613 0018162 224.1069 135.8607 14.15819452345162
TITAN 4B R/B            
1 26474U 00047B   26044.90808867  .00003194  00000+0  20485-3 0  9994
2 26474  67.9889 107.3742 0037058  64.5569 295.9407 15.09356719389321
ENVISAT                 
1 27386U 02009A   26044.82586473  .00000132  00000+0  56679-4 0  9998
2 27386  98.3686 358.9977 0001342  88.0018 299.9675 14.39027861255742
