CCSDS_OMM_VERS = 2.0
CREATION_DATE  = 
ORIGINATOR     = 

OBJECT_NAME    = SL-16 R/B
OBJECT_ID      = 1998-043G
CENTER_NAME    = EARTH
REF_FRAME      = TEME
TIME_SYSTEM    = UTC
MEAN_ELEMENT_THEORY = SGP/SGP4

EPOCH          = 2026-02-13T19:20:24.888768
MEAN_MOTION    = 14.26043965
ECCENTRICITY   = .00109858
INCLINATION    = 98.8212
RA_OF_ASC_NODE = 358.0060
ARG_OF_PERICENTER = 84.1732
MEAN_ANOMALY   = 276.0700

EPHEMERIS_TYPE = 0
CLASSIFICATION_TYPE = U
NORAD_CAT_ID   = 25400
ELEMENT_SET_NO = 999
REV_AT_EPOCH   = 43558
BSTAR          = .44847909E-4
MEAN_MOTION_DOT = .62E-6
MEAN_MOTION_DDOT = 0

CCSDS_OMM_VERS = 2.0
CREATION_DATE  = 
ORIGINATOR     = 

OBJECT_NAME    = SL-16 R/B
OBJECT_ID      = 1998-045B
CENTER_NAME    = EARTH
REF_FRAME      = TEME
TIME_SYSTEM    = UTC
MEAN_ELEMENT_THEORY = SGP/SGP4

EPOCH          = 2026-02-13T21:51:58.610592
MEAN_MOTION    = 14.16187197
ECCENTRICITY   = .00056089
INCLINATION    = 71.0086
RA_OF_ASC_NODE = 231.5788
ARG_OF_PERICENTER = 51.5989
MEAN_ANOMALY   = 308.5638

EPHEMERIS_TYPE = 0
CLASSIFICATION_TYPE = U
NORAD_CAT_ID   = 25407
ELEMENT_SET_NO = 999
REV_AT_EPOCH   = 42373
BSTAR          = .17558256E-3
MEAN_MOTION_DOT = .3E-5
MEAN_MOTION_DDOT = 0

CCSDS_OMM_VERS = 2.0
CREATION_DATE  = 
ORIGINATOR     = 

OBJECT_NAME    = ISS (ZARYA)
OBJECT_ID      = 1998-067A
CENTER_NAME    = EARTH
REF_FRAME      = TEME
TIME_SYSTEM    = UTC
MEAN_ELEMENT_THEORY = SGP/SGP4

EPOCH          = 2026-02-13T16:45:23.789664
MEAN_MOTION    = 15.48584309
ECCENTRICITY   = .00110499
INCLINATION    = 51.6306
RA_OF_ASC_NODE = 190.9508
ARG_OF_PERICENTER = 94.7958
MEAN_ANOMALY   = 265.4292

EPHEMERIS_TYPE = 0
CLASSIFICATION_TYPE = U
NORAD_CAT_ID   = 25544
ELEMENT_SET_NO = 999
REV_AT_EPOCH   = 55261
BSTAR          = .15142451E-3
MEAN_MOTION_DOT = .7793E-4
MEAN_MOTION_DDOT = 0

CCSDS_OMM_VERS = 2.0
CREATION_DATE  = 
ORIGINATOR     = 

OBJECT_NAME    = CZ-4B R/B
OBJECT_ID      = 1999-025C
CENTER_NAME    = EARTH
REF_FRAME      = TEME
TIME_SYSTEM    = UTC
MEAN_ELEMENT_THEORY = SGP/SGP4

EPOCH          = 2026-02-13T18:13:46.734816
MEAN_MOTION    = 14.18260436
ECCENTRICITY   = .00379712
INCLINATION    = 98.6675
RA_OF_ASC_NODE = 89.6024
ARG_OF_PERICENTER = 54.8723
MEAN_ANOMALY   = 57.6800

EPHEMERIS_TYPE = 0
CLASSIFICATION_TYPE = U
NORAD_CAT_ID   = 25732
ELEMENT_SET_NO = 999
REV_AT_EPOCH   = 38477
BSTAR          = .51192597E-4
MEAN_MOTION_DOT = .63E-6
MEAN_MOTION_DDOT = 0

CCSDS_OMM_VERS = 2.0
CREATION_DATE  = 
ORIGINATOR     = 

OBJECT_NAME    = OKEAN-O
OBJECT_ID      = 1999-039A
CENTER_NAME    = EARTH
REF_FRAME      = TEME
TIME_SYSTEM    = UTC
MEAN_ELEMENT_THEORY = SGP/SGP4

EPOCH          = 2026-02-13T17:21:57.388032
MEAN_MOTION    = 14.80295472
ECCENTRICITY   = .000187
INCLINATION    = 97.9496
RA_OF_ASC_NODE = 104.8523
ARG_OF_PERICENTER = 83.2883
MEAN_ANOMALY   = 276.8542

EPHEMERIS_TYPE = 0
CLASSIFICATION_TYPE = U
NORAD_CAT_ID   = 25860
ELEMENT_SET_NO = 999
REV_AT_EPOCH   = 43084
BSTAR          = .97826626E-4
MEAN_MOTION_DOT = .693E-5
MEAN_MOTION_DDOT = 0

CCSDS_OMM_VERS = 2.0
CREATION_DATE  = 
ORIGINATOR     = 

OBJECT_NAME    = SL-16 R/B
OBJECT_ID      = 1999-039B
CENTER_NAME    = EARTH
REF_FRAME      = TEME
TIME_SYSTEM    = UTC
MEAN_ELEMENT_THEORY = SGP/SGP4

EPOCH          = 2026-02-13T17:25:33.997152
MEAN_MOTION    = 14.81697150
ECCENTRICITY   = .00142399
INCLINATION    = 98.0019
RA_OF_ASC_NODE = 103.8518
ARG_OF_PERICENTER = 340.4403
MEAN_ANOMALY   = 19.6262

EPHEMERIS_TYPE = 0
CLASSIFICATION_TYPE = U
NORAD_CAT_ID   = 25861
ELEMENT_SET_NO = 999
REV_AT_EPOCH   = 43331
BSTAR          = .84145769E-4
MEAN_MOTION_DOT = .609E-5
MEAN_MOTION_DDOT = 0

CCSDS_OMM_VERS = 2.0
CREATION_DATE  = 
ORIGINATOR     = 

OBJECT_NAME    = DELTA 2 R/B
OBJECT_ID      = 1999-041E
CENTER_NAME    = EARTH
REF_FRAME      = TEME
TIME_SYSTEM    = UTC
MEAN_ELEMENT_THEORY = SGP/SGP4

EPOCH          = 2026-02-13T22:31:09.822432
MEAN_MOTION    = 14.11745284
ECCENTRICITY   = .05022647
INCLINATION    = 51.7655
RA_OF_ASC_NODE = 36.1305
ARG_OF_PERICENTER = 278.2743
MEAN_ANOMALY   = 76.1553

EPHEMERIS_TYPE = 0
CLASSIFICATION_TYPE = U
NORAD_CAT_ID   = 25876
ELEMENT_SET_NO = 999
REV_AT_EPOCH   = 35967
BSTAR          = .38001662E-3
MEAN_MOTION_DOT = .213E-4
MEAN_MOTION_DDOT = 0

CCSDS_OMM_VERS = 2.0
CREATION_DATE  = 
ORIGINATOR     = 

OBJECT_NAME    = HELIOS 1B
OBJECT_ID      = 1999-064A
CENTER_NAME    = EARTH
REF_FRAME      = TEME
TIME_SYSTEM    = UTC
MEAN_ELEMENT_THEORY = SGP/SGP4

EPOCH          = 2026-02-13T16:50:15.131328
MEAN_MOTION    = 14.87596360
ECCENTRICITY   = .00022172
INCLINATION    = 98.1724
RA_OF_ASC_NODE = 306.2371
ARG_OF_PERICENTER = 108.3495
MEAN_ANOMALY   = 251.7962

EPHEMERIS_TYPE = 0
CLASSIFICATION_TYPE = U
NORAD_CAT_ID   = 25977
ELEMENT_SET_NO = 999
REV_AT_EPOCH   = 68169
BSTAR          = .20291546E-3
MEAN_MOTION_DOT = .1785E-4
MEAN_MOTION_DDOT = 0

CCSDS_OMM_VERS = 2.0
CREATION_DATE  = 
ORIGINATOR     = 

OBJECT_NAME    = TERRA
OBJECT_ID      = 1999-068A
CENTER_NAME    = EARTH
REF_FRAME      = TEME
TIME_SYSTEM    = UTC
MEAN_ELEMENT_THEORY = SGP/SGP4

EPOCH          = 2026-02-13T19:49:15.426336
MEAN_MOTION    = 14.60988321
ECCENTRICITY   = .00010522
INCLINATION    = 97.9645
RA_OF_ASC_NODE = 99.1660
ARG_OF_PERICENTER = 234.6600
MEAN_ANOMALY   = 252.9628

EPHEMERIS_TYPE = 0
CLASSIFICATION_TYPE = U
NORAD_CAT_ID   = 25994
ELEMENT_SET_NO = 999
REV_AT_EPOCH   = 39159
BSTAR          = .10475371E-3
MEAN_MOTION_DOT = .469E-5
MEAN_MOTION_DDOT = 0

CCSDS_OMM_VERS = 2.0
CREATION_DATE  = 
ORIGINATOR     = 

OBJECT_NAME    = SL-16 R/B
OBJECT_ID      = 2000-006B
CENTER_NAME    = EARTH
REF_FRAME      = TEME
TIME_SYSTEM    = UTC
MEAN_ELEMENT_THEORY = SGP/SGP4

EPOCH          = 2026-02-13T17:00:00.827424
MEAN_MOTION    = 14.15819452
ECCENTRICITY   = .00181627
INCLINATION    = 71.0029
RA_OF_ASC_NODE = 148.2613
ARG_OF_PERICENTER = 224.1069
MEAN_ANOMALY   = 135.8607

EPHEMERIS_TYPE = 0
CLASSIFICATION_TYPE = U
NORAD_CAT_ID   = 26070
ELEMENT_SET_NO = 999
REV_AT_EPOCH   = 34516
BSTAR          = -.93165473E-4
MEAN_MOTION_DOT = -.231E-5
MEAN_MOTION_DDOT = 0

CCSDS_OMM_VERS = 2.0
CREATION_DATE  = 
ORIGINATOR     = 

OBJECT_NAME    = TITAN 4B R/B
OBJECT_ID      = 2000-047B
CENTER_NAME    = EARTH
REF_FRAME      = TEME
TIME_SYSTEM    = UTC
MEAN_ELEMENT_THEORY = SGP/SGP4

EPOCH          = 2026-02-13T21:47:38.861088
MEAN_MOTION    = 15.09356719
ECCENTRICITY   = .00370582
INCLINATION    = 67.9889
RA_OF_ASC_NODE = 107.3742
ARG_OF_PERICENTER = 64.5569
MEAN_ANOMALY   = 295.9407

EPHEMERIS_TYPE = 0
CLASSIFICATION_TYPE = U
NORAD_CAT_ID   = 26474
ELEMENT_SET_NO = 999
REV_AT_EPOCH   = 38932
BSTAR          = .2048497E-3
MEAN_MOTION_DOT = .3194E-4
MEAN_MOTION_DDOT = 0

CCSDS_OMM_VERS = 2.0
CREATION_DATE  = 
ORIGINATOR     = 

OBJECT_NAME    = ENVISAT
OBJECT_ID      = 2002-009A
CENTER_NAME    = EARTH
REF_FRAME      = TEME
TIME_SYSTEM    = UTC
MEAN_ELEMENT_THEORY = SGP/SGP4

EPOCH          = 2026-02-13T19:49:14.712672
MEAN_MOTION    = 14.39027861
ECCENTRICITY   = .00013426
INCLINATION    = 98.3686
RA_OF_ASC_NODE = 358.9977
ARG_OF_PERICENTER = 88.0018
MEAN_ANOMALY   = 299.9675

EPHEMERIS_TYPE = 0
CLASSIFICATION_TYPE = U
NORAD_CAT_ID   = 27386
ELEMENT_SET_NO = 999
REV_AT_EPOCH   = 25574
BSTAR          = .56678801E-4
MEAN_MOTION_DOT = .132E-5
MEAN_MOTION_DDOT = 0

